{"type":"FeatureCollection","crs":{"Name":"urn:ogc:def:crs:EPSG::3857","type":"name","properties":{"name":"urn:ogc:def:crs:EPSG::3857"}},"name":"landmarks","features":[{"type":"Feature","properties":{"type":"Base","label":"North Villa\nErik","z":111},"geometry":{"type":"Point","coordinates":[-1784,1009]}},{"type":"Feature","properties":{"type":"Base","label":"Ram Ranch\nBlu, RistoH","z":111},"geometry":{"type":"Point","coordinates":[539,-81]}},{"type":"Feature","properties":{"type":"Base","label":"Traders Cove\nTom","z":113},"geometry":{"type":"Point","coordinates":[6570,-13029]}},{"type":"Feature","properties":{"type":"Base","label":"Frjálsi bær\nPotter, Skippy, Dutchy","z":117},"geometry":{"type":"Point","coordinates":[3507,-23758]}}]}