{"type":"FeatureCollection","crs":{"Name":"urn:ogc:def:crs:EPSG::3857","type":"name","properties":{"name":"urn:ogc:def:crs:EPSG::3857"}},"name":"traders","features":[{"type":"Feature","properties":{"name":"Marco","wares":"Building materials trader","z":114},"geometry":{"type":"Point","coordinates":[4649,9802]}},{"type":"Feature","properties":{"name":"Ra Bal","wares":"Luxuries trader","z":112},"geometry":{"type":"Point","coordinates":[4458,9167]}},{"type":"Feature","properties":{"name":"Halona","wares":"Furniture trader","z":113},"geometry":{"type":"Point","coordinates":[4082,8752]}},{"type":"Feature","properties":{"name":"Shem","wares":"Luxuries trader","z":114},"geometry":{"type":"Point","coordinates":[5009,8855]}},{"type":"Feature","properties":{"name":"Ephram","wares":"Furniture trader","z":112},"geometry":{"type":"Point","coordinates":[5628,8744]}},{"type":"Feature","properties":{"name":"Wildling","wares":"Artisan trader","z":141},"geometry":{"type":"Point","coordinates":[3787,8211]}},{"type":"Feature","properties":{"name":"Abria","wares":"Commodities trader","z":107},"geometry":{"type":"Point","coordinates":[4597,8419]}},{"type":"Feature","properties":{"name":"Wilt","wares":"Agriculture trader","z":110},"geometry":{"type":"Point","coordinates":[3298,7805]}},{"type":"Feature","properties":{"name":"Haldor","wares":"Clothing trader","z":120},"geometry":{"type":"Point","coordinates":[4003,7622]}},{"type":"Feature","properties":{"name":"Edel","wares":"Treasure hunter trader","z":108},"geometry":{"type":"Point","coordinates":[430,5767]}},{"type":"Feature","properties":{"name":"Kino","wares":"Luxuries trader","z":109},"geometry":{"type":"Point","coordinates":[436,5161]}},{"type":"Feature","properties":{"name":"Miguel","wares":"Building materials trader","z":112},"geometry":{"type":"Point","coordinates":[1018,5368]}},{"type":"Feature","properties":{"name":"Iveta","wares":"Building materials trader","z":110},"geometry":{"type":"Point","coordinates":[1619,5450]}},{"type":"Feature","properties":{"name":"Axe","wares":"Building materials trader","z":121},"geometry":{"type":"Point","coordinates":[-8839,4673]}},{"type":"Feature","properties":{"name":"Mouse","wares":"Furniture trader","z":117},"geometry":{"type":"Point","coordinates":[-8119,4685]}},{"type":"Feature","properties":{"name":"Roi","wares":"Agriculture trader","z":116},"geometry":{"type":"Point","coordinates":[-942,4606]}},{"type":"Feature","properties":{"name":"Virág","wares":"Luxuries trader","z":116},"geometry":{"type":"Point","coordinates":[-9430,4466]}},{"type":"Feature","properties":{"name":"Jasper","wares":"Artisan trader","z":115},"geometry":{"type":"Point","coordinates":[-248,4197]}},{"type":"Feature","properties":{"name":"Abria","wares":"Survival goods trader","z":112},"geometry":{"type":"Point","coordinates":[-8998,3995]}},{"type":"Feature","properties":{"name":"Hans","wares":"Agriculture trader","z":110},"geometry":{"type":"Point","coordinates":[-8386,3991]}},{"type":"Feature","properties":{"name":"Old Eyes","wares":"Commodities trader","z":115},"geometry":{"type":"Point","coordinates":[-2519,3642]}},{"type":"Feature","properties":{"name":"Karin","wares":"Furniture trader","z":111},"geometry":{"type":"Point","coordinates":[191,3655]}},{"type":"Feature","properties":{"name":"Sprig","wares":"Luxuries trader","z":112},"geometry":{"type":"Point","coordinates":[-8776,3371]}},{"type":"Feature","properties":{"name":"Filippe","wares":"Building materials trader","z":112},"geometry":{"type":"Point","coordinates":[-8780,3372]}},{"type":"Feature","properties":{"name":"Virág","wares":"Survival goods trader","z":110},"geometry":{"type":"Point","coordinates":[-3797,3145]}},{"type":"Feature","properties":{"name":"Wilt","wares":"Building materials trader","z":106},"geometry":{"type":"Point","coordinates":[-2083,3143]}},{"type":"Feature","properties":{"name":"Innis","wares":"Agriculture trader","z":111},"geometry":{"type":"Point","coordinates":[-1749,3279]}},{"type":"Feature","properties":{"name":"Samoset","wares":"Clothing trader","z":127},"geometry":{"type":"Point","coordinates":[-167,3169]}},{"type":"Feature","properties":{"name":"Wilt","wares":"Clothing trader","z":106},"geometry":{"type":"Point","coordinates":[975,3470]}},{"type":"Feature","properties":{"name":"Jasper","wares":"Commodities trader","z":132},"geometry":{"type":"Point","coordinates":[-2807,2594]}},{"type":"Feature","properties":{"name":"Sarah","wares":"Agriculture trader","z":106},"geometry":{"type":"Point","coordinates":[-1452,2770]}},{"type":"Feature","properties":{"name":"Two Tongue","wares":"Furniture trader","z":110},"geometry":{"type":"Point","coordinates":[-727,2787]}},{"type":"Feature","properties":{"name":"Crow","wares":"Building materials trader","z":113},"geometry":{"type":"Point","coordinates":[-708,1808]}},{"type":"Feature","properties":{"name":"Old Eyes","wares":"Artisan trader","z":109},"geometry":{"type":"Point","coordinates":[853,2017]}},{"type":"Feature","properties":{"name":"Yura","wares":"Artisan trader","z":107},"geometry":{"type":"Point","coordinates":[1509,2003]}},{"type":"Feature","properties":{"name":"Wallace","wares":"Commodities trader","z":110},"geometry":{"type":"Point","coordinates":[2169,1940]}},{"type":"Feature","properties":{"name":"Edel","wares":"Agriculture trader","z":120},"geometry":{"type":"Point","coordinates":[-2128,1209]}},{"type":"Feature","properties":{"name":"Aida","wares":"Building materials trader","z":114},"geometry":{"type":"Point","coordinates":[-1508,1170]}},{"type":"Feature","properties":{"name":"Ea","wares":"Furniture trader","z":110},"geometry":{"type":"Point","coordinates":[92,1056]}},{"type":"Feature","properties":{"name":"Marco","wares":"Agriculture trader","z":110},"geometry":{"type":"Point","coordinates":[656,1272]}},{"type":"Feature","properties":{"name":"Wildling","wares":"Agriculture trader","z":108},"geometry":{"type":"Point","coordinates":[1564,1102]}},{"type":"Feature","properties":{"name":"Robert","wares":"Building materials trader","z":106},"geometry":{"type":"Point","coordinates":[2263,1110]}},{"type":"Feature","properties":{"name":"Ra Bal","wares":"Clothing trader","z":110},"geometry":{"type":"Point","coordinates":[3128,1109]}},{"type":"Feature","properties":{"name":"Sprig","wares":"Survival goods trader","z":112},"geometry":{"type":"Point","coordinates":[998,784]}},{"type":"Feature","properties":{"name":"Bounder","wares":"Furniture trader","z":122},"geometry":{"type":"Point","coordinates":[-1060,699]}},{"type":"Feature","properties":{"name":"Veera","wares":"Furniture trader","z":114},"geometry":{"type":"Point","coordinates":[-7709,6]}},{"type":"Feature","properties":{"name":"Timaf","wares":"Clothing trader","z":106},"geometry":{"type":"Point","coordinates":[-6307,443]}},{"type":"Feature","properties":{"name":"Fletcher","wares":"Furniture trader","z":114},"geometry":{"type":"Point","coordinates":[-1677,322]}},{"type":"Feature","properties":{"name":"Bedwyr","wares":"Survival goods trader","z":112},"geometry":{"type":"Point","coordinates":[-525,439]}},{"type":"Feature","properties":{"name":"Bedwyr","wares":"Luxuries trader","z":111},"geometry":{"type":"Point","coordinates":[-1006,44]}},{"type":"Feature","properties":{"name":"Yan","wares":"Luxuries trader","z":112},"geometry":{"type":"Point","coordinates":[-15,48]}},{"type":"Feature","properties":{"name":"Camellia","wares":"unknown","z":111},"geometry":{"type":"Point","coordinates":[322,93]}},{"type":"Feature","properties":{"name":"Crow","wares":"Survival goods trader","z":112},"geometry":{"type":"Point","coordinates":[382,502]}},{"type":"Feature","properties":{"name":"Shem","wares":"Artisan trader","z":135},"geometry":{"type":"Point","coordinates":[-8534,-14]}},{"type":"Feature","properties":{"name":"Wulf","wares":"Furniture trader","z":110},"geometry":{"type":"Point","coordinates":[-8106,-510]}},{"type":"Feature","properties":{"name":"Luta","wares":"Artisan trader","z":108},"geometry":{"type":"Point","coordinates":[1549,455]}},{"type":"Feature","properties":{"name":"Sasha","wares":"Luxuries trader","z":112},"geometry":{"type":"Point","coordinates":[-7121,-72]}},{"type":"Feature","properties":{"name":"Old Eyes","wares":"Agriculture trader","z":114},"geometry":{"type":"Point","coordinates":[2177,449]}},{"type":"Feature","properties":{"name":"Kino","wares":"Treasure hunter trader","z":131},"geometry":{"type":"Point","coordinates":[-3109,-59]}},{"type":"Feature","properties":{"name":"Mostofa","wares":"Clothing trader","z":110},"geometry":{"type":"Point","coordinates":[-1777,-316]}},{"type":"Feature","properties":{"name":"Sprig","wares":"Building materials trader","z":110},"geometry":{"type":"Point","coordinates":[-5104,-183]}},{"type":"Feature","properties":{"name":"Whel","wares":"Clothing trader","z":110},"geometry":{"type":"Point","coordinates":[-9277,-317]}},{"type":"Feature","properties":{"name":"Karl","wares":"Artisan trader","z":112},"geometry":{"type":"Point","coordinates":[468,-391]}},{"type":"Feature","properties":{"name":"Timaf","wares":"Treasure hunter trader","z":109},"geometry":{"type":"Point","coordinates":[1233,-70]}},{"type":"Feature","properties":{"name":"Aida","wares":"Artisan trader","z":107},"geometry":{"type":"Point","coordinates":[2180,-440]}},{"type":"Feature","properties":{"name":"Axe","wares":"Furniture trader","z":110},"geometry":{"type":"Point","coordinates":[-9479,-908]}},{"type":"Feature","properties":{"name":"Shift","wares":"Commodities trader","z":109},"geometry":{"type":"Point","coordinates":[-8734,-596]}},{"type":"Feature","properties":{"name":"Shem","wares":"Agriculture trader","z":110},"geometry":{"type":"Point","coordinates":[-7375,-629]}},{"type":"Feature","properties":{"name":"Optal","wares":"Treasure hunter trader","z":112},"geometry":{"type":"Point","coordinates":[-1218,-547]}},{"type":"Feature","properties":{"name":"Marco","wares":"Building materials trader","z":112},"geometry":{"type":"Point","coordinates":[1576,-613]}},{"type":"Feature","properties":{"name":"Guldasta","wares":"Agriculture trader","z":110},"geometry":{"type":"Point","coordinates":[1,-899]}},{"type":"Feature","properties":{"name":"Lin","wares":"Building materials trader","z":119},"geometry":{"type":"Point","coordinates":[609,-1030]}},{"type":"Feature","properties":{"name":"Sprig","wares":"Furniture trader","z":110},"geometry":{"type":"Point","coordinates":[-5020,-1167]}},{"type":"Feature","properties":{"name":"Rigby","wares":"Agriculture trader","z":118},"geometry":{"type":"Point","coordinates":[-872,-1209]}},{"type":"Feature","properties":{"name":"Virág","wares":"Artisan trader","z":112},"geometry":{"type":"Point","coordinates":[-323,-1457]}},{"type":"Feature","properties":{"name":"Ra Bal","wares":"Survival goods trader","z":112},"geometry":{"type":"Point","coordinates":[1253,-1130]}},{"type":"Feature","properties":{"name":"Samoset","wares":"Clothing trader","z":106},"geometry":{"type":"Point","coordinates":[-1921,-1523]}},{"type":"Feature","properties":{"name":"Two Tongue","wares":"Clothing trader","z":122},"geometry":{"type":"Point","coordinates":[-4475,-2150]}},{"type":"Feature","properties":{"name":"Wulf","wares":"Artisan trader","z":110},"geometry":{"type":"Point","coordinates":[-2071,-2220]}},{"type":"Feature","properties":{"name":"Old Eyes","wares":"Artisan trader","z":112},"geometry":{"type":"Point","coordinates":[-1298,-2072]}},{"type":"Feature","properties":{"name":"Onyx","wares":"Treasure hunter trader","z":108},"geometry":{"type":"Point","coordinates":[-11480,-2886]}},{"type":"Feature","properties":{"name":"Marco","wares":"Building materials trader","z":113},"geometry":{"type":"Point","coordinates":[-4164,-2720]}},{"type":"Feature","properties":{"name":"Rote","wares":"Artisan trader","z":109},"geometry":{"type":"Point","coordinates":[-6962,-3372]}},{"type":"Feature","properties":{"name":"Alfonse","wares":"Furniture trader","z":120},"geometry":{"type":"Point","coordinates":[-546,-2926]}},{"type":"Feature","properties":{"name":"Iveta","wares":"Luxuries trader","z":110},"geometry":{"type":"Point","coordinates":[-3604,-3239]}},{"type":"Feature","properties":{"name":"Karin","wares":"Survival goods trader","z":111},"geometry":{"type":"Point","coordinates":[-3607,-3241]}},{"type":"Feature","properties":{"name":"Tsatse","wares":"Commodities trader","z":110},"geometry":{"type":"Point","coordinates":[-3602,-3243]}},{"type":"Feature","properties":{"name":"Alfonse","wares":"Treasure hunter trader","z":106},"geometry":{"type":"Point","coordinates":[4320,-3213]}},{"type":"Feature","properties":{"name":"Tybal","wares":"Commodities trader","z":106},"geometry":{"type":"Point","coordinates":[-7349,-3846]}},{"type":"Feature","properties":{"name":"Chaska","wares":"Commodities trader","z":112},"geometry":{"type":"Point","coordinates":[-3193,-3761]}},{"type":"Feature","properties":{"name":"Ea","wares":"Artisan trader","z":110},"geometry":{"type":"Point","coordinates":[-2469,-3643]}},{"type":"Feature","properties":{"name":"Stretch","wares":"Agriculture trader","z":114},"geometry":{"type":"Point","coordinates":[439,-4057]}},{"type":"Feature","properties":{"name":"Fletcher","wares":"Commodities trader","z":112},"geometry":{"type":"Point","coordinates":[-6713,-4155]}},{"type":"Feature","properties":{"name":"Hans","wares":"Furniture trader","z":110},"geometry":{"type":"Point","coordinates":[-3108,-4389]}},{"type":"Feature","properties":{"name":"Elsu","wares":"Treasure hunter trader","z":110},"geometry":{"type":"Point","coordinates":[-7964,-4834]}},{"type":"Feature","properties":{"name":"Bedwyr","wares":"Luxuries trader","z":108},"geometry":{"type":"Point","coordinates":[-4487,-4859]}},{"type":"Feature","properties":{"name":"Virág","wares":"Furniture trader","z":106},"geometry":{"type":"Point","coordinates":[-3899,-5046]}},{"type":"Feature","properties":{"name":"Two-Tooth","wares":"unknown","z":109},"geometry":{"type":"Point","coordinates":[-6657,-5442]}},{"type":"Feature","properties":{"name":"Bounder","wares":"Furniture trader","z":113},"geometry":{"type":"Point","coordinates":[2527,-5590]}},{"type":"Feature","properties":{"name":"Wilt","wares":"Treasure hunter trader","z":115},"geometry":{"type":"Point","coordinates":[-6034,-5317]}},{"type":"Feature","properties":{"name":"Hosa","wares":"Building materials trader","z":110},"geometry":{"type":"Point","coordinates":[-5105,-5386]}},{"type":"Feature","properties":{"name":"Hans","wares":"Survival goods trader","z":110},"geometry":{"type":"Point","coordinates":[-5102,-5389]}},{"type":"Feature","properties":{"name":"Leo","wares":"Agriculture trader","z":110},"geometry":{"type":"Point","coordinates":[-5106,-5393]}},{"type":"Feature","properties":{"name":"Stefan","wares":"Survival goods trader","z":112},"geometry":{"type":"Point","coordinates":[-4365,-5449]}},{"type":"Feature","properties":{"name":"Ren","wares":"Furniture trader","z":110},"geometry":{"type":"Point","coordinates":[-8971,-6554]}},{"type":"Feature","properties":{"name":"Fletcher","wares":"Survival goods trader","z":106},"geometry":{"type":"Point","coordinates":[-7633,-7136]}},{"type":"Feature","properties":{"name":"Miguel","wares":"Commodities trader","z":110},"geometry":{"type":"Point","coordinates":[-9394,-7356]}},{"type":"Feature","properties":{"name":"Crow","wares":"Survival goods trader","z":112},"geometry":{"type":"Point","coordinates":[-4528,-7599]}},{"type":"Feature","properties":{"name":"Yura","wares":"Clothing trader","z":110},"geometry":{"type":"Point","coordinates":[-6914,-7714]}},{"type":"Feature","properties":{"name":"Rote","wares":"Agriculture trader","z":112},"geometry":{"type":"Point","coordinates":[-6348,-7994]}},{"type":"Feature","properties":{"name":"Yura","wares":"Survival goods trader","z":116},"geometry":{"type":"Point","coordinates":[-5450,-7981]}},{"type":"Feature","properties":{"name":"Filippe","wares":"Artisan trader","z":111},"geometry":{"type":"Point","coordinates":[7813,-8178]}},{"type":"Feature","properties":{"name":"Lin","wares":"Agriculture trader","z":106},"geometry":{"type":"Point","coordinates":[-9794,-8412]}},{"type":"Feature","properties":{"name":"Gild","wares":"Agriculture trader","z":112},"geometry":{"type":"Point","coordinates":[-4879,-8374]}},{"type":"Feature","properties":{"name":"Mouse","wares":"Furniture trader","z":113},"geometry":{"type":"Point","coordinates":[3296,-8387]}},{"type":"Feature","properties":{"name":"Virág","wares":"Building materials trader","z":116},"geometry":{"type":"Point","coordinates":[-9192,-8805]}},{"type":"Feature","properties":{"name":"Onyx","wares":"Clothing trader","z":108},"geometry":{"type":"Point","coordinates":[-8533,-8864]}},{"type":"Feature","properties":{"name":"Loon","wares":"Treasure hunter trader","z":110},"geometry":{"type":"Point","coordinates":[-4968,-8979]}},{"type":"Feature","properties":{"name":"Ren","wares":"Building materials trader","z":107},"geometry":{"type":"Point","coordinates":[-4128,-8900]}},{"type":"Feature","properties":{"name":"Jasper","wares":"Commodities trader","z":110},"geometry":{"type":"Point","coordinates":[9957,-9166]}},{"type":"Feature","properties":{"name":"Izel","wares":"Treasure hunter trader","z":110},"geometry":{"type":"Point","coordinates":[-3688,-9585]}},{"type":"Feature","properties":{"name":"Whel","wares":"Treasure hunter trader","z":115},"geometry":{"type":"Point","coordinates":[-10103,-9227]}},{"type":"Feature","properties":{"name":"Sigourney","wares":"Agriculture trader","z":112},"geometry":{"type":"Point","coordinates":[-9099,-9421]}},{"type":"Feature","properties":{"name":"Ra Bal","wares":"Commodities trader","z":112},"geometry":{"type":"Point","coordinates":[1111,-9317]}},{"type":"Feature","properties":{"name":"Roi","wares":"Luxuries trader","z":106},"geometry":{"type":"Point","coordinates":[8960,-9256]}},{"type":"Feature","properties":{"name":"Mostofa","wares":"Building materials trader","z":110},"geometry":{"type":"Point","coordinates":[6227,-9714]}},{"type":"Feature","properties":{"name":"Reah","wares":"Furniture trader","z":107},"geometry":{"type":"Point","coordinates":[7412,-9657]}},{"type":"Feature","properties":{"name":"Yern","wares":"Luxuries trader","z":108},"geometry":{"type":"Point","coordinates":[-9233,-10078]}},{"type":"Feature","properties":{"name":"Zdenka","wares":"Building materials trader","z":112},"geometry":{"type":"Point","coordinates":[8127,-9415]}},{"type":"Feature","properties":{"name":"Hubert","wares":"Clothing trader","z":112},"geometry":{"type":"Point","coordinates":[-3247,-9978]}},{"type":"Feature","properties":{"name":"Guldasta","wares":"Survival goods trader","z":160},"geometry":{"type":"Point","coordinates":[-2578,-9828]}},{"type":"Feature","properties":{"name":"Briar","wares":"Treasure hunter trader","z":109},"geometry":{"type":"Point","coordinates":[-3884,-10696]}},{"type":"Feature","properties":{"name":"Shift","wares":"Furniture trader","z":110},"geometry":{"type":"Point","coordinates":[5797,-10137]}},{"type":"Feature","properties":{"name":"Blithe","wares":"Agriculture trader","z":129},"geometry":{"type":"Point","coordinates":[6798,-10095]}},{"type":"Feature","properties":{"name":"Stretch","wares":"Building materials trader","z":113},"geometry":{"type":"Point","coordinates":[8081,-10107]}},{"type":"Feature","properties":{"name":"Guldasta","wares":"Luxuries trader","z":112},"geometry":{"type":"Point","coordinates":[8687,-9797]}},{"type":"Feature","properties":{"name":"Aram","wares":"Luxuries trader","z":120},"geometry":{"type":"Point","coordinates":[9350,-9984]}},{"type":"Feature","properties":{"name":"Havadi","wares":"Clothing trader","z":112},"geometry":{"type":"Point","coordinates":[-3260,-10866]}},{"type":"Feature","properties":{"name":"Oliver","wares":"Building materials trader","z":110},"geometry":{"type":"Point","coordinates":[10120,-9964]}},{"type":"Feature","properties":{"name":"Aida","wares":"Commodities trader","z":112},"geometry":{"type":"Point","coordinates":[6332,-10482]}},{"type":"Feature","properties":{"name":"Virág","wares":"Artisan trader","z":109},"geometry":{"type":"Point","coordinates":[7095,-10669]}},{"type":"Feature","properties":{"name":"Haldor","wares":"Commodities trader","z":115},"geometry":{"type":"Point","coordinates":[7715,-10602]}},{"type":"Feature","properties":{"name":"Fletcher","wares":"Survival goods trader","z":110},"geometry":{"type":"Point","coordinates":[5473,-10843]}},{"type":"Feature","properties":{"name":"Whel","wares":"Artisan trader","z":111},"geometry":{"type":"Point","coordinates":[-3697,-11296]}},{"type":"Feature","properties":{"name":"Timaf","wares":"Luxuries trader","z":112},"geometry":{"type":"Point","coordinates":[6267,-11204]}},{"type":"Feature","properties":{"name":"Wildling","wares":"Artisan trader","z":110},"geometry":{"type":"Point","coordinates":[-2580,-11497]}},{"type":"Feature","properties":{"name":"Ea","wares":"Luxuries trader","z":110},"geometry":{"type":"Point","coordinates":[7737,-11229]}},{"type":"Feature","properties":{"name":"Luta","wares":"Treasure hunter trader","z":108},"geometry":{"type":"Point","coordinates":[8368,-11007]}},{"type":"Feature","properties":{"name":"Marco","wares":"Furniture trader","z":114},"geometry":{"type":"Point","coordinates":[7071,-11282]}},{"type":"Feature","properties":{"name":"Edel","wares":"Clothing trader","z":110},"geometry":{"type":"Point","coordinates":[3265,-11697]}},{"type":"Feature","properties":{"name":"Ea","wares":"Clothing trader","z":112},"geometry":{"type":"Point","coordinates":[9642,-10935]}},{"type":"Feature","properties":{"name":"Karin","wares":"Survival goods trader","z":106},"geometry":{"type":"Point","coordinates":[4312,-11337]}},{"type":"Feature","properties":{"name":"Luta","wares":"Luxuries trader","z":111},"geometry":{"type":"Point","coordinates":[8441,-11727]}},{"type":"Feature","properties":{"name":"Optal","wares":"Clothing trader","z":107},"geometry":{"type":"Point","coordinates":[8935,-11290]}},{"type":"Feature","properties":{"name":"Iveta","wares":"Agriculture trader","z":110},"geometry":{"type":"Point","coordinates":[-2004,-11972]}},{"type":"Feature","properties":{"name":"Horace","wares":"Furniture trader","z":120},"geometry":{"type":"Point","coordinates":[5728,-11854]}},{"type":"Feature","properties":{"name":"Noah","wares":"Clothing trader","z":115},"geometry":{"type":"Point","coordinates":[6435,-11804]}},{"type":"Feature","properties":{"name":"Sarah","wares":"Treasure hunter trader","z":122},"geometry":{"type":"Point","coordinates":[-4171,-11802]}},{"type":"Feature","properties":{"name":"Samoset","wares":"Commodities trader","z":167},"geometry":{"type":"Point","coordinates":[7163,-11925]}},{"type":"Feature","properties":{"name":"Mouse","wares":"Clothing trader","z":109},"geometry":{"type":"Point","coordinates":[-2712,-12351]}},{"type":"Feature","properties":{"name":"Kino","wares":"Luxuries trader","z":111},"geometry":{"type":"Point","coordinates":[7826,-11860]}},{"type":"Feature","properties":{"name":"Zdenka","wares":"Luxuries trader","z":112},"geometry":{"type":"Point","coordinates":[-1659,-12476]}},{"type":"Feature","properties":{"name":"Iveta","wares":"Artisan trader","z":110},"geometry":{"type":"Point","coordinates":[3814,-12052]}},{"type":"Feature","properties":{"name":"Sarah","wares":"Agriculture trader","z":107},"geometry":{"type":"Point","coordinates":[9038,-11962]}},{"type":"Feature","properties":{"name":"Wulf","wares":"Luxuries trader","z":111},"geometry":{"type":"Point","coordinates":[9684,-11940]}},{"type":"Feature","properties":{"name":"Yoskolo","wares":"Artisan trader","z":115},"geometry":{"type":"Point","coordinates":[-3628,-12307]}},{"type":"Feature","properties":{"name":"Reah","wares":"Luxuries trader","z":106},"geometry":{"type":"Point","coordinates":[6177,-12790]}},{"type":"Feature","properties":{"name":"Halona","wares":"Building materials trader","z":108},"geometry":{"type":"Point","coordinates":[7124,-12588]}},{"type":"Feature","properties":{"name":"Denef","wares":"Artisan trader","z":114},"geometry":{"type":"Point","coordinates":[7724,-12484]}},{"type":"Feature","properties":{"name":"Halona","wares":"Agriculture trader","z":109},"geometry":{"type":"Point","coordinates":[8319,-12343]}},{"type":"Feature","properties":{"name":"Wallace","wares":"Survival goods trader","z":111},"geometry":{"type":"Point","coordinates":[8886,-12728]}},{"type":"Feature","properties":{"name":"Whel","wares":"Artisan trader","z":112},"geometry":{"type":"Point","coordinates":[9496,-12669]}},{"type":"Feature","properties":{"name":"Hubert","wares":"Commodities trader","z":110},"geometry":{"type":"Point","coordinates":[-2269,-12809]}},{"type":"Feature","properties":{"name":"Luta","wares":"Clothing trader","z":148},"geometry":{"type":"Point","coordinates":[-1044,-12987]}},{"type":"Feature","properties":{"name":"Crow","wares":"Commodities trader","z":112},"geometry":{"type":"Point","coordinates":[6588,-13295]}},{"type":"Feature","properties":{"name":"Stretch","wares":"Agriculture trader","z":111},"geometry":{"type":"Point","coordinates":[3510,-12898]}},{"type":"Feature","properties":{"name":"McCrae","wares":"Clothing trader","z":114},"geometry":{"type":"Point","coordinates":[7641,-13126]}},{"type":"Feature","properties":{"name":"Wulf","wares":"Furniture trader","z":106},"geometry":{"type":"Point","coordinates":[8268,-13049]}},{"type":"Feature","properties":{"name":"Humbert","wares":"Agriculture trader","z":113},"geometry":{"type":"Point","coordinates":[9168,-13278]}},{"type":"Feature","properties":{"name":"Hubert","wares":"Commodities trader","z":106},"geometry":{"type":"Point","coordinates":[-1905,-13798]}},{"type":"Feature","properties":{"name":"Luta","wares":"Clothing trader","z":106},"geometry":{"type":"Point","coordinates":[6025,-13549]}},{"type":"Feature","properties":{"name":"Stefan","wares":"Agriculture trader","z":110},"geometry":{"type":"Point","coordinates":[-2833,-14457]}},{"type":"Feature","properties":{"name":"Tsatse","wares":"Furniture trader","z":112},"geometry":{"type":"Point","coordinates":[7195,-13617]}},{"type":"Feature","properties":{"name":"Leo","wares":"Furniture trader","z":110},"geometry":{"type":"Point","coordinates":[7978,-13765]}},{"type":"Feature","properties":{"name":"Fletcher","wares":"Artisan trader","z":120},"geometry":{"type":"Point","coordinates":[8456,-13636]}},{"type":"Feature","properties":{"name":"Elsu","wares":"Treasure hunter trader","z":107},"geometry":{"type":"Point","coordinates":[-2008,-14480]}},{"type":"Feature","properties":{"name":"Miguel","wares":"Survival goods trader","z":113},"geometry":{"type":"Point","coordinates":[9767,-13388]}},{"type":"Feature","properties":{"name":"Sasha","wares":"Building materials trader","z":109},"geometry":{"type":"Point","coordinates":[8354,-14245]}},{"type":"Feature","properties":{"name":"Two Tongue","wares":"Clothing trader","z":156},"geometry":{"type":"Point","coordinates":[8913,-14013]}},{"type":"Feature","properties":{"name":"Oliver","wares":"Artisan trader","z":108},"geometry":{"type":"Point","coordinates":[-2391,-13994]}},{"type":"Feature","properties":{"name":"Amelia","wares":"unknown","z":113},"geometry":{"type":"Point","coordinates":[-1468,-14204]}},{"type":"Feature","properties":{"name":"Kino","wares":"Commodities trader","z":111},"geometry":{"type":"Point","coordinates":[7650,-14461]}},{"type":"Feature","properties":{"name":"Bounder","wares":"Commodities trader","z":117},"geometry":{"type":"Point","coordinates":[4053,-14965]}},{"type":"Feature","properties":{"name":"Whel","wares":"Luxuries trader","z":111},"geometry":{"type":"Point","coordinates":[6669,-17098]}},{"type":"Feature","properties":{"name":"Edel","wares":"Clothing trader","z":117},"geometry":{"type":"Point","coordinates":[6487,-17698]}},{"type":"Feature","properties":{"name":"Edel","wares":"Artisan trader","z":112},"geometry":{"type":"Point","coordinates":[-6511,-18831]}},{"type":"Feature","properties":{"name":"Hans","wares":"Commodities trader","z":114},"geometry":{"type":"Point","coordinates":[-5803,-18791]}},{"type":"Feature","properties":{"name":"Miguel","wares":"Agriculture trader","z":124},"geometry":{"type":"Point","coordinates":[-5389,-19389]}},{"type":"Feature","properties":{"name":"Ren","wares":"Survival goods trader","z":110},"geometry":{"type":"Point","coordinates":[-4762,-20424]}},{"type":"Feature","properties":{"name":"Two-Tooth","wares":"unknown","z":109},"geometry":{"type":"Point","coordinates":[1535,-20456]}},{"type":"Feature","properties":{"name":"Sprig","wares":"Building materials trader","z":109},"geometry":{"type":"Point","coordinates":[-3800,-20582]}},{"type":"Feature","properties":{"name":"Hosa","wares":"Luxuries trader","z":114},"geometry":{"type":"Point","coordinates":[-3024,-20486]}},{"type":"Feature","properties":{"name":"Virág","wares":"Treasure hunter trader","z":106},"geometry":{"type":"Point","coordinates":[-2423,-20506]}},{"type":"Feature","properties":{"name":"Wallace","wares":"Clothing trader","z":123},"geometry":{"type":"Point","coordinates":[-1431,-20768]}},{"type":"Feature","properties":{"name":"Yan","wares":"Artisan trader","z":113},"geometry":{"type":"Point","coordinates":[-3572,-21193]}},{"type":"Feature","properties":{"name":"Aida","wares":"Building materials trader","z":106},"geometry":{"type":"Point","coordinates":[-2684,-21084]}},{"type":"Feature","properties":{"name":"Iveta","wares":"Building materials trader","z":111},"geometry":{"type":"Point","coordinates":[1337,-21165]}},{"type":"Feature","properties":{"name":"Tybal","wares":"Agriculture trader","z":112},"geometry":{"type":"Point","coordinates":[-4619,-22404]}},{"type":"Feature","properties":{"name":"Silver","wares":"Commodities trader","z":110},"geometry":{"type":"Point","coordinates":[719,-21701]}},{"type":"Feature","properties":{"name":"Silver","wares":"Survival goods trader","z":116},"geometry":{"type":"Point","coordinates":[-1596,-22787]}},{"type":"Feature","properties":{"name":"Fletcher","wares":"Luxuries trader","z":174},"geometry":{"type":"Point","coordinates":[1171,-23054]}},{"type":"Feature","properties":{"name":"Hosa","wares":"Commodities trader","z":111},"geometry":{"type":"Point","coordinates":[2930,-22977]}},{"type":"Feature","properties":{"name":"Fletcher","wares":"Agriculture trader","z":145},"geometry":{"type":"Point","coordinates":[2264,-23126]}},{"type":"Feature","properties":{"name":"Karl","wares":"Clothing trader","z":106},"geometry":{"type":"Point","coordinates":[8285,-23329]}},{"type":"Feature","properties":{"name":"Ea","wares":"Survival goods trader","z":115},"geometry":{"type":"Point","coordinates":[4559,-22583]}},{"type":"Feature","properties":{"name":"Hector","wares":"Survival goods trader","z":106},"geometry":{"type":"Point","coordinates":[4846,-23804]}},{"type":"Feature","properties":{"name":"Tsatse","wares":"Agriculture trader","z":108},"geometry":{"type":"Point","coordinates":[3504,-23322]}},{"type":"Feature","properties":{"name":"Samoset","wares":"Treasure hunter trader","z":106},"geometry":{"type":"Point","coordinates":[6378,-23031]}},{"type":"Feature","properties":{"name":"Veera","wares":"Survival goods trader","z":110},"geometry":{"type":"Point","coordinates":[4133,-23372]}},{"type":"Feature","properties":{"name":"Lin","wares":"Clothing trader","z":113},"geometry":{"type":"Point","coordinates":[1920,-23652]}},{"type":"Feature","properties":{"name":"Two Tongue","wares":"Agriculture trader","z":111},"geometry":{"type":"Point","coordinates":[3810,-24148]}},{"type":"Feature","properties":{"name":"Guldasta","wares":"Furniture trader","z":123},"geometry":{"type":"Point","coordinates":[2565,-23710]}},{"type":"Feature","properties":{"name":"Optal","wares":"Survival goods trader","z":143},"geometry":{"type":"Point","coordinates":[5443,-23421]}},{"type":"Feature","properties":{"name":"Wildling","wares":"Commodities trader","z":112},"geometry":{"type":"Point","coordinates":[7199,-23665]}},{"type":"Feature","properties":{"name":"Hans","wares":"Furniture trader","z":112},"geometry":{"type":"Point","coordinates":[4749,-24447]}},{"type":"Feature","properties":{"name":"Hector","wares":"Artisan trader","z":113},"geometry":{"type":"Point","coordinates":[3326,-24799]}},{"type":"Feature","properties":{"name":"Ea","wares":"Agriculture trader","z":112},"geometry":{"type":"Point","coordinates":[3178,-24034]}},{"type":"Feature","properties":{"name":"Ea","wares":"Clothing trader","z":106},"geometry":{"type":"Point","coordinates":[5352,-24207]}},{"type":"Feature","properties":{"name":"Fletcher","wares":"Agriculture trader","z":115},"geometry":{"type":"Point","coordinates":[4971,-25068]}},{"type":"Feature","properties":{"name":"Wallace","wares":"Building materials trader","z":106},"geometry":{"type":"Point","coordinates":[1159,-25149]}},{"type":"Feature","properties":{"name":"Vlad","wares":"Furniture trader","z":113},"geometry":{"type":"Point","coordinates":[6688,-24511]}},{"type":"Feature","properties":{"name":"Elsu","wares":"Agriculture trader","z":115},"geometry":{"type":"Point","coordinates":[7624,-24106]}},{"type":"Feature","properties":{"name":"Virág","wares":"Treasure hunter trader","z":111},"geometry":{"type":"Point","coordinates":[2543,-25131]}},{"type":"Feature","properties":{"name":"Sprig","wares":"Clothing trader","z":112},"geometry":{"type":"Point","coordinates":[8190,-24342]}},{"type":"Feature","properties":{"name":"Shift","wares":"Commodities trader","z":114},"geometry":{"type":"Point","coordinates":[7029,-25026]}},{"type":"Feature","properties":{"name":"Miguel","wares":"Luxuries trader","z":113},"geometry":{"type":"Point","coordinates":[3744,-25247]}},{"type":"Feature","properties":{"name":"Stretch","wares":"Building materials trader","z":110},"geometry":{"type":"Point","coordinates":[2177,-24254]}},{"type":"Feature","properties":{"name":"Silver","wares":"Furniture trader","z":112},"geometry":{"type":"Point","coordinates":[4986,-26023]}},{"type":"Feature","properties":{"name":"Shift","wares":"Furniture trader","z":118},"geometry":{"type":"Point","coordinates":[8439,-24464]}},{"type":"Feature","properties":{"name":"Crow","wares":"Agriculture trader","z":109},"geometry":{"type":"Point","coordinates":[7708,-24740]}},{"type":"Feature","properties":{"name":"Aida","wares":"Commodities trader","z":110},"geometry":{"type":"Point","coordinates":[5320,-25216]}},{"type":"Feature","properties":{"name":"Bounder","wares":"Clothing trader","z":112},"geometry":{"type":"Point","coordinates":[9207,-24429]}},{"type":"Feature","properties":{"name":"Virág","wares":"Commodities trader","z":111},"geometry":{"type":"Point","coordinates":[8557,-25077]}},{"type":"Feature","properties":{"name":"Ren","wares":"Furniture trader","z":111},"geometry":{"type":"Point","coordinates":[9568,-24959]}},{"type":"Feature","properties":{"name":"Humbert","wares":"Agriculture trader","z":109},"geometry":{"type":"Point","coordinates":[8061,-25596]}},{"type":"Feature","properties":{"name":"Axe","wares":"Treasure hunter trader","z":108},"geometry":{"type":"Point","coordinates":[9135,-25399]}},{"type":"Feature","properties":{"name":"Sprig","wares":"Clothing trader","z":117},"geometry":{"type":"Point","coordinates":[7289,-25805]}},{"type":"Feature","properties":{"name":"Virág","wares":"Furniture trader","z":119},"geometry":{"type":"Point","coordinates":[8638,-25781]}},{"type":"Feature","properties":{"name":"Havadi","wares":"Survival goods trader","z":114},"geometry":{"type":"Point","coordinates":[2525,-25778]}},{"type":"Feature","properties":{"name":"Ruslan","wares":"Survival goods trader","z":120},"geometry":{"type":"Point","coordinates":[9685,-25624]}},{"type":"Feature","properties":{"name":"Samoset","wares":"Survival goods trader","z":122},"geometry":{"type":"Point","coordinates":[3263,-25775]}},{"type":"Feature","properties":{"name":"Humbert","wares":"Building materials trader","z":122},"geometry":{"type":"Point","coordinates":[4378,-25803]}},{"type":"Feature","properties":{"name":"Vlad","wares":"Agriculture trader","z":106},"geometry":{"type":"Point","coordinates":[7058,-27319]}},{"type":"Feature","properties":{"name":"Sigourney","wares":"Artisan trader","z":106},"geometry":{"type":"Point","coordinates":[3382,-26379]}},{"type":"Feature","properties":{"name":"Ea","wares":"Luxuries trader","z":109},"geometry":{"type":"Point","coordinates":[3963,-26204]}},{"type":"Feature","properties":{"name":"Oliver","wares":"Treasure hunter trader","z":109},"geometry":{"type":"Point","coordinates":[9009,-27442]}},{"type":"Feature","properties":{"name":"Axe","wares":"Luxuries trader","z":106},"geometry":{"type":"Point","coordinates":[8162,-27896]}},{"type":"Feature","properties":{"name":"Ephram","wares":"Survival goods trader","z":106},"geometry":{"type":"Point","coordinates":[9944,-27508]}},{"type":"Feature","properties":{"name":"Luta","wares":"Commodities trader","z":112},"geometry":{"type":"Point","coordinates":[6469,-26490]}},{"type":"Feature","properties":{"name":"Optal","wares":"Furniture trader","z":112},"geometry":{"type":"Point","coordinates":[8597,-26401]}},{"type":"Feature","properties":{"name":"Havadi","wares":"Furniture trader","z":110},"geometry":{"type":"Point","coordinates":[-1944,-30476]}},{"type":"Feature","properties":{"name":"Ea","wares":"Survival goods trader","z":113},"geometry":{"type":"Point","coordinates":[4466,-26721]}},{"type":"Feature","properties":{"name":"Rigby","wares":"Commodities trader","z":125},"geometry":{"type":"Point","coordinates":[7686,-27126]}},{"type":"Feature","properties":{"name":"Sasha","wares":"Building materials trader","z":114},"geometry":{"type":"Point","coordinates":[9499,-27042]}},{"type":"Feature","properties":{"name":"Ruslan","wares":"Clothing trader","z":115},"geometry":{"type":"Point","coordinates":[-1719,-32147]}},{"type":"Feature","properties":{"name":"Izel","wares":"Artisan trader","z":113},"geometry":{"type":"Point","coordinates":[-2114,-32619]}},{"type":"Feature","properties":{"name":"Samoset","wares":"Furniture trader","z":110},"geometry":{"type":"Point","coordinates":[-1896,-33197]}},{"type":"Feature","properties":{"name":"Sarah","wares":"Treasure hunter trader","z":112},"geometry":{"type":"Point","coordinates":[-1367,-32893]}},{"type":"Feature","properties":{"name":"Tsatse","wares":"Commodities trader","z":111},"geometry":{"type":"Point","coordinates":[-887,-33281]}},{"type":"Feature","properties":{"name":"Chaska","wares":"Commodities trader","z":107},"geometry":{"type":"Point","coordinates":[-2744,-33597]}},{"type":"Feature","properties":{"name":"Ren","wares":"Building materials trader","z":111},"geometry":{"type":"Point","coordinates":[-2105,-33773]}},{"type":"Feature","properties":{"name":"Silver","wares":"Commodities trader","z":110},"geometry":{"type":"Point","coordinates":[-2834,-33855]}},{"type":"Feature","properties":{"name":"Stretch","wares":"Commodities trader","z":106},"geometry":{"type":"Point","coordinates":[-1440,-33850]}},{"type":"Feature","properties":{"name":"Wulf","wares":"Agriculture trader","z":106},"geometry":{"type":"Point","coordinates":[-2412,-34419]}},{"type":"Feature","properties":{"name":"Bounder","wares":"Agriculture trader","z":107},"geometry":{"type":"Point","coordinates":[-1809,-34366]}},{"type":"Feature","properties":{"name":"Aram","wares":"Building materials trader","z":113},"geometry":{"type":"Point","coordinates":[-2999,-34963]}},{"type":"Feature","properties":{"name":"Mostofa","wares":"Artisan trader","z":111},"geometry":{"type":"Point","coordinates":[-2000,-35040]}},{"type":"Feature","properties":{"name":"Shem","wares":"Clothing trader","z":110},"geometry":{"type":"Point","coordinates":[-2520,-35353]}}]}