{"type":"FeatureCollection","crs":{"Name":"urn:ogc:def:crs:EPSG::3857","type":"name","properties":{"name":"urn:ogc:def:crs:EPSG::3857"}},"name":"translocators","features":[{"type":"Feature","properties":{"depth1":23,"depth2":107,"label":"","tag":"","elkTrav":false},"geometry":{"type":"LineString","coordinates":[[-5056,5693],[2559,1011]]}},{"type":"Feature","properties":{"depth1":79,"depth2":107,"label":"","tag":"","elkTrav":false},"geometry":{"type":"LineString","coordinates":[[-8285,4919],[-1827,973]]}},{"type":"Feature","properties":{"depth1":112,"depth2":13,"label":"","tag":"","elkTrav":false},"geometry":{"type":"LineString","coordinates":[[-8693,3273],[-11501,-2929]]}},{"type":"Feature","properties":{"depth1":41,"depth2":86,"label":"","tag":"","elkTrav":false},"geometry":{"type":"LineString","coordinates":[[4312,2525],[425,-169]]}},{"type":"Feature","properties":{"depth1":111,"depth2":38,"label":"","tag":"","elkTrav":false},"geometry":{"type":"LineString","coordinates":[[6888,-12925],[13530,-19410]]}},{"type":"Feature","properties":{"depth1":125,"depth2":47,"label":"","tag":"","elkTrav":false},"geometry":{"type":"LineString","coordinates":[[2842,-23280],[-2313,-24927]]}},{"type":"Feature","properties":{"depth1":57,"depth2":41,"label":"","tag":"","elkTrav":false},"geometry":{"type":"LineString","coordinates":[[5577,-23892],[-2045,-30401]]}},{"type":"Feature","properties":{"depth1":110,"depth2":101,"label":"","tag":"","elkTrav":false},"geometry":{"type":"LineString","coordinates":[[2802,-25373],[-1942,-33088]]}},{"type":"Feature","properties":{"depth1":30,"depth2":111,"label":"","tag":"","elkTrav":false},"geometry":{"type":"LineString","coordinates":[[328,-28538],[-1747,-32947]]}},{"type":"Feature","properties":{"depth1":24,"depth2":109,"label":"","tag":"","elkTrav":false},"geometry":{"type":"LineString","coordinates":[[-2047,-30484],[3506,-23748]]}}]}